{
    "links": {
        "self": "http://www.neowsapp.com/rest/v1/neo/3457387?api_key=iIulBulltgU6a56xZRHN4H3l9WmuAYTsLGpBGhQ2"
    },
    "id": "3457387",
    "neo_reference_id": "3457387",
    "name": "(2009 HD)",
    "designation": "2009 HD",
    "nasa_jpl_url": "http://ssd.jpl.nasa.gov/sbdb.cgi?sstr=3457387",
    "absolute_magnitude_h": 22.8,
    "estimated_diameter": {
        "kilometers": {
            "estimated_diameter_min": 0.0732073989,
            "estimated_diameter_max": 0.1636967205
        },
        "meters": {
            "estimated_diameter_min": 73.2073989347,
            "estimated_diameter_max": 163.696720474
        },
        "miles": {
            "estimated_diameter_min": 0.0454889547,
            "estimated_diameter_max": 0.1017163949
        },
        "feet": {
            "estimated_diameter_min": 240.181762721,
            "estimated_diameter_max": 537.0627483999
        }
    },
    "is_potentially_hazardous_asteroid": false,
    "close_approach_data": [
        {
            "close_approach_date": "2009-04-24",
            "close_approach_date_full": "2009-Apr-24 09:45",
            "epoch_date_close_approach": 1240566300000,
            "relative_velocity": {
                "kilometers_per_second": "9.3757283196",
                "kilometers_per_hour": "33752.6219504495",
                "miles_per_hour": "20972.5666780446"
            },
            "miss_distance": {
                "astronomical": "0.0755784552",
                "lunar": "29.4000190728",
                "kilometers": "11306375.915810424",
                "miles": "7025456.2193508912"
            },
            "orbiting_body": "Earth"
        }
    ],
    "orbital_data": {
        "orbit_id": "18",
        "orbit_determination_date": "2017-04-06 09:00:49",
        "first_observation_date": "2009-04-17",
        "last_observation_date": "2009-05-03",
        "data_arc_in_days": 16,
        "observations_used": 97,
        "orbit_uncertainty": "8",
        "minimum_orbit_intersection": ".0750186",
        "jupiter_tisserand_invariant": "3.249",
        "epoch_osculation": "2454944.5",
        "eccentricity": ".5565015713013505",
        "semi_major_axis": "2.43134062789341",
        "inclination": "12.41274826213974",
        "ascending_node_longitude": "35.03208511322376",
        "orbital_period": "1384.736493274979",
        "perihelion_distance": "1.078295748101915",
        "perihelion_argument": "172.3720799254743",
        "aphelion_distance": "3.784385507684905",
        "perihelion_time": "2454940.215570389160",
        "mean_anomaly": "1.113854272919861",
        "mean_motion": ".2599772604739982",
        "equinox": "J2000",
        "orbit_class": {
            "orbit_class_type": "AMO",
            "orbit_class_description": "Near-Earth asteroid orbits similar to that of 1221 Amor",
            "orbit_class_range": "1.017 AU < q (perihelion) < 1.3 AU"
        }
    },
    "is_sentry_object": false
}